start=new Date('2023-02-23T00:00:00.000Z').valueOf();
sats=[{"REF_FRAME":"TEME","LAUNCH_DATE":"2023-02-12","EPHEMERIS_TYPE":"0","REV_AT_EPOCH":"130","NORAD_CAT_ID":"55592","CENTER_NAME":"EARTH","PERIOD":"91.634","OBJECT_NAME":"STARLINK-5759","GP_ID":"226477804","CLASSIFICATION_TYPE":"U","SEMIMAJOR_AXIS":"6732.844","MEAN_MOTION":"15.71465794","ARG_OF_PERICENTER":"252.1078","TLE_LINE1":"1 55592U 23020Z   23053.91667824 -.00082591  00000-0 -62955-3 0  9996","INCLINATION":"43.0005","MEAN_MOTION_DDOT":"0.0000000000000","MEAN_ELEMENT_THEORY":"SGP4","OBJECT_ID":"2023-020Z","DECAY_DATE":null,"PERIAPSIS":"352.936","MEAN_ANOMALY":"233.9058","ELEMENT_SET_NO":"999","RCS_SIZE":null,"SITE":"AFETR","MEAN_MOTION_DOT":"-0.00082591","TIME_SYSTEM":"UTC","TLE_LINE2":"2 55592  43.0005 291.7369 0002634 252.1078 233.9058 15.71465794  1300","EPOCH":"2023-02-22T22:00:00.999936","FILE":"3825529","APOAPSIS":"356.482","OBJECT_TYPE":"PAYLOAD","COUNTRY_CODE":"US","ECCENTRICITY":"0.00026340","BSTAR":"-0.00062955000000","RA_OF_ASC_NODE":"291.7369"},{"ARG_OF_PERICENTER":"265.5257","TLE_LINE1":"1 55593U 23020AA  23053.91667824  .00070591  00000-0  53780-3 0  9998","INCLINATION":"42.9998","MEAN_MOTION_DDOT":"0.0000000000000","OBJECT_ID":"2023-020AA","MEAN_ELEMENT_THEORY":"SGP4","DECAY_DATE":null,"LAUNCH_DATE":"2023-02-12","REF_FRAME":"TEME","EPHEMERIS_TYPE":"0","NORAD_CAT_ID":"55593","REV_AT_EPOCH":"130","PERIOD":"91.642","OBJECT_NAME":"STARLINK-5703","CENTER_NAME":"EARTH","SEMIMAJOR_AXIS":"6733.236","CLASSIFICATION_TYPE":"U","GP_ID":"226477840","MEAN_MOTION":"15.71328697","FILE":"3825529","COUNTRY_CODE":"US","OBJECT_TYPE":"PAYLOAD","APOAPSIS":"356.221","ECCENTRICITY":"0.00016640","RA_OF_ASC_NODE":"291.7405","BSTAR":"0.00053780000000","PERIAPSIS":"353.980","MEAN_ANOMALY":"218.7812","ELEMENT_SET_NO":"999","MEAN_MOTION_DOT":"0.00070591","SITE":"AFETR","RCS_SIZE":null,"TIME_SYSTEM":"UTC","TLE_LINE2":"2 55593  42.9998 291.7405 0001664 265.5257 218.7812 15.71328697  1309","EPOCH":"2023-02-22T22:00:00.999936"},{"SITE":"AFETR","RCS_SIZE":null,"MEAN_MOTION_DOT":"-0.00079428","ELEMENT_SET_NO":"999","MEAN_ANOMALY":"220.2585","PERIAPSIS":"353.903","EPOCH":"2023-02-22T22:00:00.999936","TLE_LINE2":"2 55594  43.0004 291.7356 0001298 266.3625 220.2585 15.71441970  1301","TIME_SYSTEM":"UTC","OBJECT_TYPE":"PAYLOAD","COUNTRY_CODE":"US","APOAPSIS":"355.651","FILE":"3825529","RA_OF_ASC_NODE":"291.7356","BSTAR":"-0.00060582000000","ECCENTRICITY":"0.00012980","NORAD_CAT_ID":"55594","REV_AT_EPOCH":"130","EPHEMERIS_TYPE":"0","REF_FRAME":"TEME","LAUNCH_DATE":"2023-02-12","MEAN_MOTION":"15.71441970","SEMIMAJOR_AXIS":"6732.912","CLASSIFICATION_TYPE":"U","GP_ID":"226477786","OBJECT_NAME":"STARLINK-5750","PERIOD":"91.636","CENTER_NAME":"EARTH","INCLINATION":"43.0004","ARG_OF_PERICENTER":"266.3625","TLE_LINE1":"1 55594U 23020AB  23053.91667824 -.00079428  00000-0 -60582-3 0  9997","DECAY_DATE":null,"OBJECT_ID":"2023-020AB","MEAN_ELEMENT_THEORY":"SGP4","MEAN_MOTION_DDOT":"0.0000000000000"},{"PERIAPSIS":"353.861","MEAN_ANOMALY":"217.2752","ELEMENT_SET_NO":"999","MEAN_MOTION_DOT":"0.00085708","SITE":"AFETR","RCS_SIZE":null,"TIME_SYSTEM":"UTC","TLE_LINE2":"2 55595  42.9999 291.7377 0001739 268.1888 217.2752 15.71352853  1300","EPOCH":"2023-02-22T22:00:00.999936","FILE":"3825529","OBJECT_TYPE":"PAYLOAD","COUNTRY_CODE":"US","APOAPSIS":"356.203","ECCENTRICITY":"0.00017390","RA_OF_ASC_NODE":"291.7377","BSTAR":"0.00065039000000","LAUNCH_DATE":"2023-02-12","REF_FRAME":"TEME","EPHEMERIS_TYPE":"0","NORAD_CAT_ID":"55595","REV_AT_EPOCH":"130","PERIOD":"91.641","OBJECT_NAME":"STARLINK-5740","CENTER_NAME":"EARTH","SEMIMAJOR_AXIS":"6733.167","CLASSIFICATION_TYPE":"U","GP_ID":"226477894","MEAN_MOTION":"15.71352853","TLE_LINE1":"1 55595U 23020AC  23053.91667824  .00085708  00000-0  65039-3 0  9996","ARG_OF_PERICENTER":"268.1888","INCLINATION":"42.9999","MEAN_MOTION_DDOT":"0.0000000000000","OBJECT_ID":"2023-020AC","MEAN_ELEMENT_THEORY":"SGP4","DECAY_DATE":null},{"GP_ID":"226477876","CLASSIFICATION_TYPE":"U","SEMIMAJOR_AXIS":"6733.155","MEAN_MOTION":"15.71356938","CENTER_NAME":"EARTH","PERIOD":"91.641","OBJECT_NAME":"STARLINK-5729","EPHEMERIS_TYPE":"0","REV_AT_EPOCH":"130","NORAD_CAT_ID":"55596","REF_FRAME":"TEME","LAUNCH_DATE":"2023-02-12","DECAY_DATE":null,"MEAN_MOTION_DDOT":"0.0000000000000","MEAN_ELEMENT_THEORY":"SGP4","OBJECT_ID":"2023-020AD","INCLINATION":"43.0004","TLE_LINE1":"1 55596U 23020AD  23053.91667824 -.00069796  00000-0 -53319-3 0  9996","ARG_OF_PERICENTER":"278.1296","TLE_LINE2":"2 55596  43.0004 291.7307 0001951 278.1296 210.4371 15.71356938  1303","EPOCH":"2023-02-22T22:00:00.999936","TIME_SYSTEM":"UTC","ELEMENT_SET_NO":"999","RCS_SIZE":null,"SITE":"AFETR","MEAN_MOTION_DOT":"-0.00069796","PERIAPSIS":"353.706","MEAN_ANOMALY":"210.4371","BSTAR":"-0.00053319000000","RA_OF_ASC_NODE":"291.7307","ECCENTRICITY":"0.00019510","APOAPSIS":"356.334","COUNTRY_CODE":"US","OBJECT_TYPE":"PAYLOAD","FILE":"3825529"},{"REF_FRAME":"TEME","LAUNCH_DATE":"2023-02-12","EPHEMERIS_TYPE":"0","NORAD_CAT_ID":"55597","REV_AT_EPOCH":"130","OBJECT_NAME":"STARLINK-5743","PERIOD":"91.508","CENTER_NAME":"EARTH","SEMIMAJOR_AXIS":"6726.643","GP_ID":"226477767","CLASSIFICATION_TYPE":"U","MEAN_MOTION":"15.73639407","TLE_LINE1":"1 55597U 23020AE  23053.91667824  .00089200  00000-0  61367-3 0  9999","ARG_OF_PERICENTER":"279.9642","INCLINATION":"42.9997","MEAN_MOTION_DDOT":"0.0000000000000","OBJECT_ID":"2023-020AE","MEAN_ELEMENT_THEORY":"SGP4","DECAY_DATE":null,"PERIAPSIS":"346.562","MEAN_ANOMALY":"233.8163","ELEMENT_SET_NO":"999","RCS_SIZE":null,"SITE":"AFETR","MEAN_MOTION_DOT":"0.00089200","TIME_SYSTEM":"UTC","TLE_LINE2":"2 55597  42.9997 291.6672 0002892 279.9642 233.8163 15.73639407  1301","EPOCH":"2023-02-22T22:00:00.999936","FILE":"3825529","OBJECT_TYPE":"PAYLOAD","COUNTRY_CODE":"US","APOAPSIS":"350.453","ECCENTRICITY":"0.00028920","RA_OF_ASC_NODE":"291.6672","BSTAR":"0.00061367000000"},{"PERIOD":"91.407","OBJECT_NAME":"STARLINK-5756","CENTER_NAME":"EARTH","MEAN_MOTION":"15.75373026","SEMIMAJOR_AXIS":"6721.707","GP_ID":"226477859","CLASSIFICATION_TYPE":"U","LAUNCH_DATE":"2023-02-12","REF_FRAME":"TEME","REV_AT_EPOCH":"130","NORAD_CAT_ID":"55598","EPHEMERIS_TYPE":"0","OBJECT_ID":"2023-020AF","MEAN_ELEMENT_THEORY":"SGP4","MEAN_MOTION_DDOT":"0.0000000000000","DECAY_DATE":null,"ARG_OF_PERICENTER":"281.3855","TLE_LINE1":"1 55598U 23020AF  23053.91667824  .00097920  00000-0  62380-3 0  9994","INCLINATION":"43.0012","TIME_SYSTEM":"UTC","EPOCH":"2023-02-22T22:00:00.999936","TLE_LINE2":"2 55598  43.0012 291.6007 0004088 281.3855 259.3932 15.75373026  1307","MEAN_ANOMALY":"259.3932","PERIAPSIS":"340.824","MEAN_MOTION_DOT":"0.00097920","SITE":"AFETR","RCS_SIZE":null,"ELEMENT_SET_NO":"999","ECCENTRICITY":"0.00040880","RA_OF_ASC_NODE":"291.6007","BSTAR":"0.00062380000000","FILE":"3825529","OBJECT_TYPE":"PAYLOAD","COUNTRY_CODE":"US","APOAPSIS":"346.320"},{"EPHEMERIS_TYPE":"0","NORAD_CAT_ID":"55599","REV_AT_EPOCH":"130","REF_FRAME":"TEME","LAUNCH_DATE":"2023-02-12","GP_ID":"226477823","CLASSIFICATION_TYPE":"U","SEMIMAJOR_AXIS":"6733.049","MEAN_MOTION":"15.71393959","CENTER_NAME":"EARTH","OBJECT_NAME":"STARLINK-5761","PERIOD":"91.638","INCLINATION":"43.0006","TLE_LINE1":"1 55599U 23020AG  23053.91667824 -.00065693  00000-0 -50069-3 0  9990","ARG_OF_PERICENTER":"272.4387","DECAY_DATE":null,"MEAN_MOTION_DDOT":"0.0000000000000","MEAN_ELEMENT_THEORY":"SGP4","OBJECT_ID":"2023-020AG","ELEMENT_SET_NO":"999","RCS_SIZE":"LARGE","SITE":"AFETR","MEAN_MOTION_DOT":"-0.00065693","PERIAPSIS":"354.411","MEAN_ANOMALY":"23.1261","TLE_LINE2":"2 55599  43.0006 291.3145 0000747 272.4387  23.1261 15.71393959  1305","EPOCH":"2023-02-22T22:00:00.999936","TIME_SYSTEM":"UTC","APOAPSIS":"355.417","OBJECT_TYPE":"PAYLOAD","COUNTRY_CODE":"US","FILE":"3825529","BSTAR":"-0.00050069000000","RA_OF_ASC_NODE":"291.3145","ECCENTRICITY":"0.00007470"},{"TLE_LINE1":"1 55600U 23020AH  23053.91667824 -.00157397  00000-0 -12145-2 0  9998","ARG_OF_PERICENTER":"244.1376","INCLINATION":"43.0007","MEAN_MOTION_DDOT":"0.0000000000000","MEAN_ELEMENT_THEORY":"SGP4","OBJECT_ID":"2023-020AH","DECAY_DATE":null,"REF_FRAME":"TEME","LAUNCH_DATE":"2023-02-12","EPHEMERIS_TYPE":"0","REV_AT_EPOCH":"130","NORAD_CAT_ID":"55600","CENTER_NAME":"EARTH","PERIOD":"91.635","OBJECT_NAME":"STARLINK-5755","GP_ID":"226477805","CLASSIFICATION_TYPE":"U","SEMIMAJOR_AXIS":"6732.890","MEAN_MOTION":"15.71449563","FILE":"3825529","APOAPSIS":"356.513","OBJECT_TYPE":"PAYLOAD","COUNTRY_CODE":"US","ECCENTRICITY":"0.00026100","BSTAR":"-0.00121450000000","RA_OF_ASC_NODE":"291.7250","PERIAPSIS":"352.998","MEAN_ANOMALY":"246.7313","ELEMENT_SET_NO":"999","RCS_SIZE":null,"SITE":"AFETR","MEAN_MOTION_DOT":"-0.00157397","TIME_SYSTEM":"UTC","TLE_LINE2":"2 55600  43.0007 291.7250 0002610 244.1376 246.7313 15.71449563  1309","EPOCH":"2023-02-22T22:00:00.999936"},{"REF_FRAME":"TEME","LAUNCH_DATE":"2023-02-12","EPHEMERIS_TYPE":"0","NORAD_CAT_ID":"55601","REV_AT_EPOCH":"130","PERIOD":"91.634","OBJECT_NAME":"STARLINK-5744","CENTER_NAME":"EARTH","SEMIMAJOR_AXIS":"6732.843","CLASSIFICATION_TYPE":"U","GP_ID":"226477841","MEAN_MOTION":"15.71466319","TLE_LINE1":"1 55601U 23020AJ  23053.91667824 -.00135830  00000-0 -10441-2 0  9994","ARG_OF_PERICENTER":"254.1185","INCLINATION":"43.0004","MEAN_MOTION_DDOT":"0.0000000000000","OBJECT_ID":"2023-020AJ","MEAN_ELEMENT_THEORY":"SGP4","DECAY_DATE":null,"PERIAPSIS":"352.722","MEAN_ANOMALY":"234.9280","ELEMENT_SET_NO":"999","RCS_SIZE":null,"SITE":"AFETR","MEAN_MOTION_DOT":"-0.00135830","TIME_SYSTEM":"UTC","TLE_LINE2":"2 55601  43.0004 291.7289 0002949 254.1185 234.9280 15.71466319  1303","EPOCH":"2023-02-22T22:00:00.999936","FILE":"3825529","COUNTRY_CODE":"US","OBJECT_TYPE":"PAYLOAD","APOAPSIS":"356.693","ECCENTRICITY":"0.00029490","RA_OF_ASC_NODE":"291.7289","BSTAR":"-0.00104410000000"}];
